STARLINK-5886           
1 56350U 23058AK  26068.98513152  .00000076  00000+0  94943-5 0  9999
2 56350  97.6046  71.5502 0002310  89.8875 270.2617 15.05648558158246
MUSAT-2                 
1 59099U 24043B   26068.91945897  .00010059  00000+0  67214-3 0  9996
2 59099  97.8438 205.4399 0006495 314.3478  45.7216 15.07177436110131
